{"fetched_at":"2026-03-29T16:36:15Z","count":15609,"tles":[{"name":"STARLINK-31772","line1":"1 59430U 24065K   26087.70425534  .00000276  00000+0  21440-4 0  9990","line2":"2 59430  53.1607 193.1343 0001413  48.6278 311.4844 15.30193879111849","category":"Starlink"}]}